{
    "links": {
        "self": "http://www.neowsapp.com/rest/v1/neo/3740100?api_key=iIulBulltgU6a56xZRHN4H3l9WmuAYTsLGpBGhQ2"
    },
    "id": "3740100",
    "neo_reference_id": "3740100",
    "name": "(2016 AD166)",
    "designation": "2016 AD166",
    "nasa_jpl_url": "http://ssd.jpl.nasa.gov/sbdb.cgi?sstr=3740100",
    "absolute_magnitude_h": 23.6,
    "estimated_diameter": {
        "kilometers": {
            "estimated_diameter_min": 0.0506471459,
            "estimated_diameter_max": 0.1132504611
        },
        "meters": {
            "estimated_diameter_min": 50.6471458835,
            "estimated_diameter_max": 113.2504610618
        },
        "miles": {
            "estimated_diameter_min": 0.0314706677,
            "estimated_diameter_max": 0.0703705522
        },
        "feet": {
            "estimated_diameter_min": 166.1651821003,
            "estimated_diameter_max": 371.5566426699
        }
    },
    "is_potentially_hazardous_asteroid": false,
    "close_approach_data": [
        {
            "close_approach_date": "1965-02-02",
            "close_approach_date_full": "1965-Feb-02 00:46",
            "epoch_date_close_approach": -154998840000,
            "relative_velocity": {
                "kilometers_per_second": "29.0053605201",
                "kilometers_per_hour": "104419.2978724468",
                "miles_per_hour": "64882.0909474656"
            },
            "miss_distance": {
                "astronomical": "0.4381809477",
                "lunar": "170.4523886553",
                "kilometers": "65550936.450501399",
                "miles": "40731463.1672973462"
            },
            "orbiting_body": "Earth"
        },
        {
            "close_approach_date": "2013-09-04",
            "close_approach_date_full": "2013-Sep-04 23:52",
            "epoch_date_close_approach": 1378338720000,
            "relative_velocity": {
                "kilometers_per_second": "11.2196391378",
                "kilometers_per_hour": "40390.7008959263",
                "miles_per_hour": "25097.2107872493"
            },
            "miss_distance": {
                "astronomical": "0.2164979511",
                "lunar": "84.2177029779",
                "kilometers": "32387632.343924157",
                "miles": "20124741.5418490866"
            },
            "orbiting_body": "Earth"
        },
        {
            "close_approach_date": "2016-01-08",
            "close_approach_date_full": "2016-Jan-08 10:31",
            "epoch_date_close_approach": 1452249060000,
            "relative_velocity": {
                "kilometers_per_second": "14.9963720481",
                "kilometers_per_hour": "53986.9393733242",
                "miles_per_hour": "33545.3846344969"
            },
            "miss_distance": {
                "astronomical": "0.0352007446",
                "lunar": "13.6930896494",
                "kilometers": "5265956.414574002",
                "miles": "3272113.5860931476"
            },
            "orbiting_body": "Earth"
        },
        {
            "close_approach_date": "2024-02-10",
            "close_approach_date_full": "2024-Feb-10 23:17",
            "epoch_date_close_approach": 1707607020000,
            "relative_velocity": {
                "kilometers_per_second": "12.969576747",
                "kilometers_per_hour": "46690.4762892389",
                "miles_per_hour": "29011.6462253885"
            },
            "miss_distance": {
                "astronomical": "0.0424071182",
                "lunar": "16.4963689798",
                "kilometers": "6344014.555558234",
                "miles": "3941987.8524182692"
            },
            "orbiting_body": "Mars"
        }
    ],
    "orbital_data": {
        "orbit_id": "8",
        "orbit_determination_date": "2018-02-10 07:07:20",
        "first_observation_date": "2016-01-09",
        "last_observation_date": "2016-02-05",
        "data_arc_in_days": 27,
        "observations_used": 39,
        "orbit_uncertainty": "7",
        "minimum_orbit_intersection": ".0209246",
        "jupiter_tisserand_invariant": "4.075",
        "epoch_osculation": "2459000.5",
        "eccentricity": ".5686519006003045",
        "semi_major_axis": "1.650696338395202",
        "inclination": "5.276125645365551",
        "ascending_node_longitude": "96.42654747559959",
        "orbital_period": "774.6387334419028",
        "perihelion_distance": ".7120247282528069",
        "perihelion_argument": "297.442436296461",
        "aphelion_distance": "2.589367948537597",
        "perihelion_time": "2458899.411511687005",
        "mean_anomaly": "46.9791326222232",
        "mean_motion": ".4647327643951329",
        "equinox": "J2000",
        "orbit_class": {
            "orbit_class_type": "APO",
            "orbit_class_description": "Near-Earth asteroid orbits which cross the Earth’s orbit similar to that of 1862 Apollo",
            "orbit_class_range": "a (semi-major axis) > 1.0 AU; q (perihelion) < 1.017 AU"
        }
    },
    "is_sentry_object": false
}